ONEWEB-0363             
1 49289U 21090L   24193.86891389  .00000071  00000+0  14390-3 0  9992
2 49289  87.9191  54.7636 0001983  93.0739 267.0622 13.20771542137202
ONEWEB-0364             
1 49290U 21090M   24193.90679110  .00000050  00000+0  90004-4 0  9999
2 49290  87.9193  54.7817 0001943  84.2574 275.8781 13.20770736138345
ONEWEB-0365             
1 49291U 21090N   24193.25653427  .00000087  00000+0  18610-3 0  9993
2 49291  87.9136  85.4374 0001883  74.3709 285.7631 13.19724061133319
ONEWEB-0366             
1 49292U 21090P   24193.90013922 -.00000044  00000+0 -15330-3 0  9997
2 49292  87.8949  70.0283 0002011  78.1805 281.9550 13.14502466134905
ONEWEB-0367             
1 49293U 21090Q   24193.86733477  .00000066  00000+0  13047-3 0  9992
2 49293  87.9193  54.7585 0002025  80.6620 279.4742 13.20771249136721
ONEWEB-0368             
1 49294U 21090R   24193.61323200 -.00000034  00000+0 -11540-3 0  9998
2 49294  87.9193  54.8398 0002675  81.9727 278.1710 13.20770243137846
ONEWEB-0369             
1 49295U 21090S   24193.70670706 -.00000006  00000+0 -48464-4 0  9990
2 49295  87.9142  85.3523 0001951  74.3112 285.8236 13.19724022133363
ONEWEB-0370             
1 49296U 21090T   24193.87680021  .00000061  00000+0  11888-3 0  9998
2 49296  87.9194  54.7611 0001433  86.6848 273.4450 13.20772515136766
